$$SOE
2460714.500000000, A.D. 2025-Feb-08 00:00:00.0000, -3.011054704977857E+08, -6.652129498179892E+08, -4.872789079593897E+06,
2460721.500000000, A.D. 2025-Feb-15 00:00:00.0000, -2.945979580119036E+08, -6.683279175744545E+08, -4.614677232031584E+06,
2460728.500000000, A.D. 2025-Feb-22 00:00:00.0000, -2.880537414840056E+08, -6.713596892596798E+08, -4.355989943770826E+06,
2460735.500000000, A.D. 2025-Mar-01 00:00:00.0000, -2.814736590041760E+08, -6.743079445595511E+08, -4.096759992149115E+06,
2460742.500000000, A.D. 2025-Mar-08 00:00:00.0000, -2.748585480650564E+08, -6.771723673652532E+08, -3.837020286929637E+06,
2460749.500000000, A.D. 2025-Mar-15 00:00:00.0000, -2.682092456768620E+08, -6.799526438826512E+08, -3.576803718538821E+06,
2460756.500000000, A.D. 2025-Mar-22 00:00:00.0000, -2.615265906913999E+08, -6.826484621573257E+08, -3.316142917933524E+06,
2460763.500000000, A.D. 2025-Mar-29 00:00:00.0000, -2.548114247575062E+08, -6.852595138572377E+08, -3.055070325286835E+06,
2460770.500000000, A.D. 2025-Apr-05 00:00:00.0000, -2.480645915827948E+08, -6.877854951748778E+08, -2.793618341122895E+06,
2460777.500000000, A.D. 2025-Apr-12 00:00:00.0000, -2.412869364278637E+08, -6.902261067447453E+08, -2.531819375031024E+06,
2460784.500000000, A.D. 2025-Apr-19 00:00:00.0000, -2.344793060202637E+08, -6.925810534571047E+08, -2.269705847086996E+06,
2460791.500000000, A.D. 2025-Apr-26 00:00:00.0000, -2.276425486166225E+08, -6.948500443705275E+08, -2.007310183750391E+06,
2460798.500000000, A.D. 2025-May-03 00:00:00.0000, -2.207775140992416E+08, -6.970327927034796E+08, -1.744664817317396E+06,
2460805.500000000, A.D. 2025-May-10 00:00:00.0000, -2.138850540785094E+08, -6.991290158957399E+08, -1.481802191029757E+06,
2460812.500000000, A.D. 2025-May-17 00:00:00.0000, -2.069660219642873E+08, -7.011384357802284E+08, -1.218754776699513E+06,
2460819.500000000, A.D. 2025-May-24 00:00:00.0000, -2.000212728322206E+08, -7.030607789193939E+08, -9.555551253506541E+05,
2460826.500000000, A.D. 2025-May-31 00:00:00.0000, -1.930516626671051E+08, -7.048957767950003E+08, -6.922359638398290E+05,
2460833.500000000, A.D. 2025-Jun-07 00:00:00.0000, -1.860580473842373E+08, -7.066431646463952E+08, -4.288302022435069E+05,
2460840.500000000, A.D. 2025-Jun-14 00:00:00.0000, -1.790412839932876E+08, -7.083026796238794E+08, -1.653706896318793E+05,
2460847.500000000, A.D. 2025-Jun-21 00:00:00.0000, -1.720022326878022E+08, -7.098740615283699E+08, 9.810990282887220E+04,
2460854.500000000, A.D. 2025-Jun-28 00:00:00.0000, -1.649417567321165E+08, -7.113570543728079E+08, 3.615789287669659E+05,
2460861.500000000, A.D. 2025-Jul-05 00:00:00.0000, -1.578607216625606E+08, -7.127514066089201E+08, 6.250036589006484E+05,
2460868.500000000, A.D. 2025-Jul-12 00:00:00.0000, -1.507599949940953E+08, -7.140568708245254E+08, 8.883512622415125E+05,
2460875.500000000, A.D. 2025-Jul-19 00:00:00.0000, -1.436404462428562E+08, -7.152732034862205E+08, 1.151588811893016E+06,
2460882.500000000, A.D. 2025-Jul-26 00:00:00.0000, -1.365029470546668E+08, -7.164001647838020E+08, 1.414683291655481E+06,
2460889.500000000, A.D. 2025-Aug-02 00:00:00.0000, -1.293483713740953E+08, -7.174375185545751E+08, 1.677601599302948E+06,
2460896.500000000, A.D. 2025-Aug-09 00:00:00.0000, -1.221775956306001E+08, -7.183850323019960E+08, 1.940310543330103E+06,
2460903.500000000, A.D. 2025-Aug-16 00:00:00.0000, -1.149914988648063E+08, -7.192424773716782E+08, 2.202776821113318E+06,
2460910.500000000, A.D. 2025-Aug-23 00:00:00.0000, -1.077909625023239E+08, -7.200096292681153E+08, 2.464966953211308E+06,
2460917.500000000, A.D. 2025-Aug-30 00:00:00.0000, -1.005768694462470E+08, -7.206862673979167E+08, 2.726847202228338E+06,
2460924.500000000, A.D. 2025-Sep-06 00:00:00.0000, -9.335010390657343E+07, -7.212721732390516E+08, 2.988383688319713E+06,
2460931.500000000, A.D. 2025-Sep-13 00:00:00.0000, -8.611155363726887E+07, -7.217671294185821E+08, 3.249542651915014E+06,
2460938.500000000, A.D. 2025-Sep-20 00:00:00.0000, -7.886211130755790E+07, -7.221709213431165E+08, 3.510290429275393E+06,
2460945.500000000, A.D. 2025-Sep-27 00:00:00.0000, -7.160267394883360E+07, -7.224833382705107E+08, 3.770593298300952E+06,
2460952.500000000, A.D. 2025-Oct-04 00:00:00.0000, -6.433414249396177E+07, -7.227041732835898E+08, 4.030417423813581E+06,
2460959.500000000, A.D. 2025-Oct-11 00:00:00.0000, -5.705742178269902E+07, -7.228332231087099E+08, 4.289728859640211E+06,
2460966.500000000, A.D. 2025-Oct-18 00:00:00.0000, -4.977342074956926E+07, -7.228702880532833E+08, 4.548493559089065E+06,
2460973.500000000, A.D. 2025-Oct-25 00:00:00.0000, -4.248305265464744E+07, -7.228151720509194E+08, 4.806677381881803E+06,
2460980.500000000, A.D. 2025-Nov-01 00:00:00.0000, -3.518723531777392E+07, -7.226676827983141E+08, 5.064246095076680E+06,
2460987.500000000, A.D. 2025-Nov-08 00:00:00.0000, -2.788689132161358E+07, -7.224276320149586E+08, 5.321165362087727E+06,
2460994.500000000, A.D. 2025-Nov-15 00:00:00.0000, -2.058294803570039E+07, -7.220948358839383E+08, 5.577400701256782E+06,
2461001.500000000, A.D. 2025-Nov-22 00:00:00.0000, -1.327633705884750E+07, -7.216691154535094E+08, 5.832917394829214E+06,
2461008.500000000, A.D. 2025-Nov-29 00:00:00.0000, -5.967993233293125E+06, -7.211502958642383E+08, 6.087680454945445E+06,
2461015.500000000, A.D. 2025-Dec-06 00:00:00.0000, 1.341144491774529E+06, -7.205382045373188E+08, 6.341654844234109E+06,
2461022.500000000, A.D. 2025-Dec-13 00:00:00.0000, 8.650130780909574E+06, -7.198326716938639E+08, 6.594805635621488E+06,
2461029.500000000, A.D. 2025-Dec-20 00:00:00.0000, 1.595801371055785E+07, -7.190335321816752E+08, 6.847097874446481E+06,
2461036.500000000, A.D. 2025-Dec-27 00:00:00.0000, 2.326383557079420E+07, -7.181406260179372E+08, 7.098496453088641E+06,
2461043.500000000, A.D. 2026-Jan-03 00:00:00.0000, 3.056663321132485E+07, -7.171537982627883E+08, 7.348966081631243E+06,
2461050.500000000, A.D. 2026-Jan-10 00:00:00.0000, 3.786543804152995E+07, -7.160728989018282E+08, 7.598471289040029E+06,
2461057.500000000, A.D. 2026-Jan-17 00:00:00.0000, 4.515927591724168E+07, -7.148977828281986E+08, 7.846976426089466E+06,
2461064.500000000, A.D. 2026-Jan-24 00:00:00.0000, 5.244716699240018E+07, -7.136283099007229E+08, 8.094445664816260E+06,
2461071.500000000, A.D. 2026-Jan-31 00:00:00.0000, 5.972812555923769E+07, -7.122643450847720E+08, 8.340842991832882E+06,
2461078.500000000, A.D. 2026-Feb-07 00:00:00.0000, 6.700115993864229E+07, -7.108057587326015E+08, 8.586132185287088E+06,
2461085.500000000, A.D. 2026-Feb-14 00:00:00.0000, 7.426527267379621E+07, -7.092524270179567E+08, 8.830276751129687E+06,
2461092.500000000, A.D. 2026-Feb-21 00:00:00.0000, 8.151946141457887E+07, -7.076042319475013E+08, 9.073239830434501E+06,
2461099.500000000, A.D. 2026-Feb-28 00:00:00.0000, 8.876271940771592E+07, -7.058610597952154E+08, 9.314984271658272E+06,
2461106.500000000, A.D. 2026-Mar-07 00:00:00.0000, 9.599403353394304E+07, -7.040227999092885E+08, 9.555472897369593E+06,
2461113.500000000, A.D. 2026-Mar-14 00:00:00.0000, 1.032123826679803E+08, -7.020893462238834E+08, 9.794668520282537E+06,
2461120.500000000, A.D. 2026-Mar-21 00:00:00.0000, 1.104167381443895E+08, -7.000605985778790E+08, 1.003253378200081E+07,
2461127.500000000, A.D. 2026-Mar-28 00:00:00.0000, 1.176060643199693E+08, -6.979364628121825E+08, 1.026903108298087E+07,
2461134.500000000, A.D. 2026-Apr-04 00:00:00.0000, 1.247793186289454E+08, -6.957168506113949E+08, 1.050412258033672E+07,
2461141.500000000, A.D. 2026-Apr-11 00:00:00.0000, 1.319354514048897E+08, -6.934016794498655E+08, 1.073777019913745E+07,
2461148.500000000, A.D. 2026-Apr-18 00:00:00.0000, 1.390734056287875E+08, -6.909908726489010E+08, 1.096993564223588E+07,
2461155.500000000, A.D. 2026-Apr-25 00:00:00.0000, 1.461921166493757E+08, -6.884843595304765E+08, 1.120058039582410E+07,
2461162.500000000, A.D. 2026-May-02 00:00:00.0000, 1.532905119068891E+08, -6.858820756971370E+08, 1.142966572565925E+07,
2461169.500000000, A.D. 2026-May-09 00:00:00.0000, 1.603675107853585E+08, -6.831839635044546E+08, 1.165715264728278E+07,
2461176.500000000, A.D. 2026-May-16 00:00:00.0000, 1.674220249719432E+08, -6.803899725879452E+08, 1.188300184701189E+07,
2461183.500000000, A.D. 2026-May-23 00:00:00.0000, 1.744529593755003E+08, -6.775000594224066E+08, 1.210717363259894E+07,
2461190.500000000, A.D. 2026-May-30 00:00:00.0000, 1.814592115260683E+08, -6.745141855943252E+08, 1.232962813033274E+07,
2461197.500000000, A.D. 2026-Jun-06 00:00:00.0000, 1.884396691380104E+08, -6.714323180608231E+08, 1.255032549007130E+07,
2461204.500000000, A.D. 2026-Jun-13 00:00:00.0000, 1.953932095030332E+08, -6.682544311961405E+08, 1.276922577806750E+07,
2461211.500000000, A.D. 2026-Jun-20 00:00:00.0000, 2.023187002123123E+08, -6.649805076998484E+08, 1.298628884248653E+07,
2461218.500000000, A.D. 2026-Jun-27 00:00:00.0000, 2.092149995094559E+08, -6.616105387069705E+08, 1.320147427938646E+07,
2461225.500000000, A.D. 2026-Jul-04 00:00:00.0000, 2.160809562742322E+08, -6.581445238750825E+08, 1.341474143558407E+07,
2461232.500000000, A.D. 2026-Jul-11 00:00:00.0000, 2.229154098910453E+08, -6.545824715804040E+08, 1.362604941406941E+07,
2461239.500000000, A.D. 2026-Jul-18 00:00:00.0000, 2.297171900949562E+08, -6.509243991972162E+08, 1.383535707530481E+07,
2461246.500000000, A.D. 2026-Jul-25 00:00:00.0000, 2.364851168198071E+08, -6.471703334579347E+08, 1.404262303215984E+07,
2461253.500000000, A.D. 2026-Aug-01 00:00:00.0000, 2.432180000967084E+08, -6.433203109420348E+08, 1.424780562994447E+07,
2461260.500000000, A.D. 2026-Aug-08 00:00:00.0000, 2.499146402179659E+08, -6.393743787298367E+08, 1.445086288876712E+07,
2461267.500000000, A.D. 2026-Aug-15 00:00:00.0000, 2.565738285816210E+08, -6.353325947710097E+08, 1.465175240689027E+07,
2461274.500000000, A.D. 2026-Aug-22 00:00:00.0000, 2.631943484555103E+08, -6.311950267467358E+08, 1.485043139467454E+07,
2461281.500000000, A.D. 2026-Aug-29 00:00:00.0000, 2.697749733715087E+08, -6.269617507981892E+08, 1.504685693685421E+07,
$$EOE